ARIANE 40 R/B           
1 20443U 90005H   26051.71864803  .00000212  00000+0  81136-4 0  9995
2 20443  98.3123 112.8826 0009037 253.0643 106.9555 14.39858247890369
DELTA 2 R/B(1)          
1 20453U 90008B   26051.03615638  .00059819  00000+0  76331-3 0  9991
2 20453  35.6041 290.4831 0089079  93.9818 267.1105 15.53431371923383
COSMOS 2058             
1 20465U 90010A   26051.43278360  .00003491  00000+0  20626-3 0  9999
2 20465  82.4663  64.4285 0010715  42.0344 318.1706 15.11153110939633
SL-14 R/B               
1 20466U 90010B   26051.69028140  .00000340  00000+0  38344-4 0  9994
2 20466  82.5006 283.3594 0019827   0.4362 359.6866 14.83553323925968
SL-14 R/B               
1 20511U 90018B   26051.55669872  .00000411  00000+0  48523-4 0  9990
2 20511  82.5179 239.1062 0017141 144.4223 215.8138 14.82124666920043
HST                     
1 20580U 90037B   26051.51930012  .00006926  00000+0  22977-3 0  9991
2 20580  28.4685 157.1051 0001111 279.1757  80.8713 15.29189338770686
SL-16 R/B               
1 20625U 90046B   26051.23634218  .00000205  00000+0  13014-3 0  9995
2 20625  71.0018 334.5679 0015501 323.8006  36.2066 14.15013793845920
COSMOS 2084             
1 20663U 90055A   26051.38706632  .00002264  00000+0  16998-3 0  9994
2 20663  62.7907  34.5839 0019748 186.1327 173.9535 15.05528907933717
SL-6 R/B(2)             
1 20666U 90055D   26051.08018885  .00001950  00000+0  15621-3 0  9993
2 20666  62.7839 313.7316 0022125 342.4074  17.6256 15.03503984935548
SL-8 R/B                
1 20775U 90078B   26051.57126560  .00012505  00000+0  36653-3 0  9999
2 20775  82.9000 266.7004 0365777  71.3987 292.6583 14.88457299806755
SL-8 R/B                
1 21088U 91006B   26051.71160844  .00000039  00000+0  23524-4 0  9991
2 21088  82.9453 182.6672 0023739  83.7591  34.9574 13.77492449761737
OKEAN-3                 
1 21397U 91039A   26051.32286210  .00003400  00000+0  23930-3 0  9998
2 21397  82.5211 353.6634 0015390  34.9097 325.3136 15.04667717862422
COSMOS 2151             
1 21422U 91042A   26051.67346362  .00001652  00000+0  13036-3 0  9997
2 21422  82.4946 100.0933 0013992 114.6281 245.6403 15.00035423860640
SL-14 R/B               
1 21423U 91042B   26051.53855942  .00000375  00000+0  44520-4 0  9996
2 21423  82.4896 236.2680 0015708 300.1615  59.8042 14.81810792850535
ERS-1                   
1 21574U 91050A   26051.66705548  .00000251  00000+0  94986-4 0  9996
2 21574  98.7893  69.4735 0030927 252.1948 107.5863 14.39434607813284
ARIANE 40 R/B           
1 21610U 91050F   26051.68914678  .00000235  00000+0  82940-4 0  9994
2 21610  98.2051 104.5607 0004255 118.4167 241.7453 14.42880090816540
INTERCOSMOS 25          
1 21819U 91086A   26051.73308207  .00000779  00000+0  14708-3 0  9994
2 21819  82.6079 320.2551 1487015 153.4588 215.1166 12.11948054494636
SL-8 R/B                
1 21876U 92008B   26051.70606709  .00000022  00000+0  66266-5 0  9996
2 21876  82.9243 280.4144 0034603 180.0076 241.3214 13.75970057707088
SL-8 R/B                
1 21938U 92020B   26051.75374109  .00000094  00000+0  81824-4 0  9995
2 21938  82.9341 166.3317 0028472 347.6345 121.8570 13.75547186698806
USA 81                  
1 21949U 92023A   26051.68334056  .00000186  00000+0  61475-4 0  9991
2 21949  85.0114 141.2488 0002740  93.4806 266.6700 14.32361591 92358
COSMOS 2219             
1 22219U 92076A   26051.54380990  .00000286  00000+0  17451-3 0  9998
2 22219  71.0588  53.9112 0019803 230.0498 129.8886 14.14080512715950
SL-16 R/B               
1 22220U 92076B   26051.75855020  .00000016  00000+0  31686-4 0  9992
2 22220  70.9978 224.0376 0011096 127.5199 323.8282 14.16854735719431
COSMOS 2221             
1 22236U 92080A   26051.71687168  .00001539  00000+0  13437-3 0  9990
2 22236  82.5037 295.3387 0012888 248.4889 111.4960 14.96130375778259
SL-16 R/B               
1 22285U 92093B   26051.42532733  .00000292  00000+0  17365-3 0  9992
2 22285  71.0216  40.5077 0005663 312.2456  47.8186 14.15446345710711
COSMOS 2228             
1 22286U 92094A   26051.74437133  .00001645  00000+0  13994-3 0  9994
2 22286  82.5145 253.5381 0018102   3.6282 356.5068 14.97102121773522
SL-16 R/B               
1 22566U 93016B   26051.74670554 -.00000097  00000+0 -25541-4 0  9990
2 22566  71.0042 250.7679 0010706 337.2735  22.7913 14.15299959699773
COSMOS 2242             
1 22626U 93024A   26051.71937830  .00001648  00000+0  14255-3 0  9996
2 22626  82.5171 282.9504 0016629   7.8071 352.3407 14.96474644777858
SL-16 R/B               
1 22803U 93059B   26051.39623287 -.00000020  00000+0  13864-4 0  9993
2 22803  70.9895  47.5944 0019204 240.3858 119.5353 14.17227405677082
ARIANE 40 R/B           
1 22830U 93061H   26051.72971193  .00000165  00000+0  76280-4 0  9995
2 22830  98.4955 120.9490 0010055 339.9197  20.1590 14.32851143691672
COSMOS 2278             
1 23087U 94023A   26051.69470667  .00000273  00000+0  16722-3 0  9999
2 23087  71.0514 210.6521 0007151  47.1979 312.9743 14.14366391642401
SL-16 R/B               
1 23088U 94023B   26051.53679788  .00000301  00000+0  18009-3 0  9990
2 23088  70.9992 106.9126 0004918 301.4174  58.6467 14.15010206643667
SL-16 R/B               
1 23343U 94074B   26051.69129512  .00000394  00000+0  59450-4 0  9990
2 23343  97.7133  83.1956 0005126 278.4898 195.4153 14.79386148684736
SL-16 R/B               
1 23405U 94077B   26051.38376236  .00000085  00000+0  67913-4 0  9995
2 23405  70.9837  28.8952 0003879 229.1772 130.9014 14.15563553613782
ARIANE 40+ R/B          
1 23561U 95021B   26051.73052304  .00000247  00000+0  92680-4 0  9993
2 23561  98.4534 123.4399 0006819 183.4760 287.9484 14.39759022616801
SL-16 R/B               
1 23705U 95058B   26051.74322436 -.00000198  00000+0 -77137-4 0  9997
2 23705  71.0200 215.8318 0011392 155.2637 204.9035 14.15495308565450
SL-16 R/B               
1 24298U 96051B   26051.67312522  .00000082  00000+0  70809-4 0  9995
2 24298  70.7578 211.2551 0016634 172.5229 187.6142 14.12410785519249
ORBVIEW 2 (SEASTAR)     
1 24883U 97037A   26051.41049873  .00000215  00000+0  90928-4 0  9990
2 24883  98.8535 215.2671 0003175 106.8920 253.2613 14.35480186505991
SL-16 R/B               
1 25400U 98043G   26051.40122504  .00000051  00000+0  40204-4 0  9996
2 25400  98.8225   4.6454 0010880  66.8379 293.3946 14.26045374436528
SL-16 R/B               
1 25407U 98045B   26051.69187413  .00000105  00000+0  77004-4 0  9994
2 25407  71.0097 217.3182 0005859  37.2846 322.8683 14.16190992424694
ISS (ZARYA)             
1 25544U 98067A   26051.53885789  .00009982  00000+0  19450-3 0  9996
2 25544  51.6324 157.1302 0008583 115.7613 244.4262 15.48162254553678
CZ-4B R/B               
1 25732U 99025C   26051.74342066  .00000042  00000+0  40843-4 0  9998
2 25732  98.6663  96.4235 0037669  35.1536  75.0473 14.18261748385769
OKEAN-O                 
1 25860U 99039A   26051.68585999  .00000584  00000+0  83506-4 0  9996
2 25860  97.9482 111.7471 0001669  78.4021 281.7378 14.80305642431870
SL-16 R/B               
1 25861U 99039B   26051.68177515  .00000486  00000+0  68500-4 0  9996
2 25861  98.0006 110.8005 0013787 316.3493  43.6628 14.81705610434347
DELTA 2 R/B             
1 25876U 99041E   26051.30976164  .00001387  00000+0  26091-3 0  9990
2 25876  51.7662  10.6882 0502219 297.1100  57.9452 14.11770959360578
HELIOS 1B               
1 25977U 99064A   26051.69690175  .00001601  00000+0  18251-3 0  9992
2 25977  98.1714 313.4396 0002361  97.8859 262.2625 14.87622051682736
TERRA                   
1 25994U 99068A   26051.74003219  .00000355  00000+0  81413-4 0  9994
2 25994  97.9631 105.8191 0001490 199.9487 271.4531 14.60994830392609
SL-16 R/B               
1 26070U 00006B   26051.63220924  .00000039  00000+0  43952-4 0  9991
2 26070  71.0022 133.7044 0017850 213.8773 146.1211 14.15818419346149
TITAN 4B R/B            
1 26474U 00047B   26051.20337052  .00002514  00000+0  16286-3 0  9997
2 26474  67.9877  89.6765 0037498  56.5431 303.9294 15.09395380390279
ENVISAT                 
1 27386U 02009A   26051.44708655  .00000103  00000+0  47176-4 0  9992
2 27386  98.3700   5.4583 0001355  87.1457  22.2244 14.39029901256698
IDEFIX & ARIANE 42P R/B 
1 27422U 02021B   26050.80602666  .00000256  00000+0  11396-3 0  9994
2 27422  98.5855 349.6281 0010739 238.0664 121.9475 14.31012476241466
AQUA                    
1 27424U 02022A   26051.24161142  .00000872  00000+0  18408-3 0  9990
2 27424  98.4144  18.2933 0001086  47.3163  65.2893 14.61930145266186
CZ-4B R/B               
1 27432U 02024C   26051.10023407  .00000036  00000+0  41224-4 0  9992
2 27432  98.8881 104.5922 0051082  73.5010 316.5461 14.14544411226754
MIDORI II (ADEOS-II)    
1 27597U 02056A   26051.72245949  .00000246  00000+0  11444-3 0  9997
2 27597  98.7740  10.0863 0002080  66.0881 294.0518 14.29271358207879
H-2A R/B                
1 27601U 02056E   26051.74969270  .00000240  00000+0  98913-4 0  9996
2 27601  98.3172  12.7635 0069460 211.2934 213.2408 14.33748134211685
CZ-4B R/B               
1 28059U 03049C   26050.98517203  .00000388  00000+0  10084-3 0  9992
2 28059  98.6862  45.1981 0047047 286.2755  73.3268 14.55000453184021
CZ-2C R/B               
1 28222U 04012C   26051.13547425  .00044709  00000+0  50211-3 0  9993
2 28222  97.7269 114.7916 0014705  19.0803 341.1002 15.62376334201537
SL-16 R/B               
1 28353U 04021B   26051.69815615  .00000254  00000+0  15673-3 0  9998
2 28353  70.9989 268.1527 0003286  49.2676 310.8731 14.14597274120436
CZ-4B R/B               
1 28415U 04035C   26051.56525769  .00007522  00000+0  26766-3 0  9996
2 28415  97.3522  86.0151 0033169  32.3982 327.9285 15.28724589177293
CZ-2C R/B               
1 28480U 04046B   26051.72710826  .00000103  00000+0  53795-4 0  9999
2 28480  98.1991 327.7654 0138830 204.6155 154.8359 14.26985764106083
